start=new Date('2022-06-11T00:00:00.000Z').valueOf();
sats=[{"ARG_OF_PERICENTER":"53.7034","CLASSIFICATION_TYPE":"U","GP_ID":"205863253","SITE":"AFETR","MEAN_ANOMALY":"306.4114","MEAN_MOTION_DDOT":"0.0000000000000","APOAPSIS":"548.428","TLE_LINE2":"2 48407  53.0564   2.0881 0001716  53.7034 306.4114 15.06391433 61139","MEAN_MOTION_DOT":"-0.00000245","REF_FRAME":"TEME","PERIAPSIS":"546.051","FILE":"3490466","ELEMENT_SET_NO":"999","INCLINATION":"53.0564","MEAN_ELEMENT_THEORY":"SGP4","EPHEMERIS_TYPE":"0","SEMIMAJOR_AXIS":"6925.375","OBJECT_TYPE":"PAYLOAD","COUNTRY_CODE":"US","TLE_LINE1":"1 48407U 21038BG  22161.84780721 -.00000245  00000-0  24824-5 0  9993","ECCENTRICITY":"0.00017160","OBJECT_NAME":"STARLINK-2595","LAUNCH_DATE":"2021-05-04","PERIOD":"95.593","BSTAR":"0.00000248240000","NORAD_CAT_ID":"48407","RA_OF_ASC_NODE":"2.0881","MEAN_MOTION":"15.06391433","OBJECT_ID":"2021-038BG","RCS_SIZE":"LARGE","REV_AT_EPOCH":"6113","TIME_SYSTEM":"UTC","CENTER_NAME":"EARTH","EPOCH":"2022-06-10T20:20:50.542944","DECAY_DATE":null},{"RA_OF_ASC_NODE":"2.1212","OBJECT_ID":"2021-038BH","MEAN_MOTION":"15.06407415","RCS_SIZE":"LARGE","EPOCH":"2022-06-10T20:15:31.761504","DECAY_DATE":null,"REV_AT_EPOCH":"6172","CENTER_NAME":"EARTH","TIME_SYSTEM":"UTC","OBJECT_TYPE":"PAYLOAD","TLE_LINE1":"1 48408U 21038BH  22161.84411761 -.00002018  00000-0 -11656-3 0  9997","OBJECT_NAME":"STARLINK-2592","ECCENTRICITY":"0.00014660","COUNTRY_CODE":"US","BSTAR":"-0.00011656000000","LAUNCH_DATE":"2021-05-04","PERIOD":"95.592","NORAD_CAT_ID":"48408","PERIAPSIS":"546.176","REF_FRAME":"TEME","TLE_LINE2":"2 48408  53.0570   2.1212 0001466  84.9361 275.1795 15.06407415 61727","MEAN_MOTION_DOT":"-0.00002018","FILE":"3490103","ELEMENT_SET_NO":"999","EPHEMERIS_TYPE":"0","SEMIMAJOR_AXIS":"6925.326","MEAN_ELEMENT_THEORY":"SGP4","INCLINATION":"53.0570","ARG_OF_PERICENTER":"84.9361","GP_ID":"205832775","CLASSIFICATION_TYPE":"U","APOAPSIS":"548.206","MEAN_MOTION_DDOT":"0.0000000000000","MEAN_ANOMALY":"275.1795","SITE":"AFETR"},{"ARG_OF_PERICENTER":"54.3692","GP_ID":"205833269","CLASSIFICATION_TYPE":"U","APOAPSIS":"548.535","MEAN_MOTION_DDOT":"0.0000000000000","SITE":"AFETR","MEAN_ANOMALY":"305.7470","REF_FRAME":"TEME","PERIAPSIS":"545.946","MEAN_MOTION_DOT":"-0.00000073","TLE_LINE2":"2 48409  53.0547   7.0233 0001869  54.3692 305.7470 15.06391148 61662","ELEMENT_SET_NO":"999","FILE":"3490103","SEMIMAJOR_AXIS":"6925.376","EPHEMERIS_TYPE":"0","MEAN_ELEMENT_THEORY":"SGP4","INCLINATION":"53.0547","OBJECT_TYPE":"PAYLOAD","TLE_LINE1":"1 48409U 21038BJ  22161.86761877 -.00000073  00000-0  14006-4 0  9997","OBJECT_NAME":"STARLINK-2596","ECCENTRICITY":"0.00018690","COUNTRY_CODE":"US","BSTAR":"0.00001400600000","PERIOD":"95.593","LAUNCH_DATE":"2021-05-04","NORAD_CAT_ID":"48409","RA_OF_ASC_NODE":"7.0233","OBJECT_ID":"2021-038BJ","MEAN_MOTION":"15.06391148","RCS_SIZE":"LARGE","EPOCH":"2022-06-10T20:49:22.261728","DECAY_DATE":null,"REV_AT_EPOCH":"6166","CENTER_NAME":"EARTH","TIME_SYSTEM":"UTC"},{"BSTAR":"0.00007231200000","LAUNCH_DATE":"2021-05-04","PERIOD":"95.593","NORAD_CAT_ID":"48410","OBJECT_TYPE":"PAYLOAD","ECCENTRICITY":"0.00014800","TLE_LINE1":"1 48410U 21038BK  22161.87223057  .00000795  00000-0  72312-4 0  9997","OBJECT_NAME":"STARLINK-2563","COUNTRY_CODE":"US","RCS_SIZE":"LARGE","DECAY_DATE":null,"EPOCH":"2022-06-10T20:56:00.721248","REV_AT_EPOCH":"6178","TIME_SYSTEM":"UTC","CENTER_NAME":"EARTH","RA_OF_ASC_NODE":"317.0019","OBJECT_ID":"2021-038BK","MEAN_MOTION":"15.06389637","MEAN_MOTION_DDOT":"0.0000000000000","APOAPSIS":"548.270","SITE":"AFETR","MEAN_ANOMALY":"296.1651","ARG_OF_PERICENTER":"63.9490","GP_ID":"205862503","CLASSIFICATION_TYPE":"U","EPHEMERIS_TYPE":"0","SEMIMAJOR_AXIS":"6925.380","MEAN_ELEMENT_THEORY":"SGP4","INCLINATION":"53.0566","PERIAPSIS":"546.220","REF_FRAME":"TEME","TLE_LINE2":"2 48410  53.0566 317.0019 0001480  63.9490 296.1651 15.06389637 61789","MEAN_MOTION_DOT":"0.00000795","FILE":"3490466","ELEMENT_SET_NO":"999"},{"RA_OF_ASC_NODE":"312.2174","MEAN_MOTION":"15.06404696","OBJECT_ID":"2021-038BL","RCS_SIZE":"LARGE","TIME_SYSTEM":"UTC","REV_AT_EPOCH":"6184","CENTER_NAME":"EARTH","EPOCH":"2022-06-10T19:45:00.242208","DECAY_DATE":null,"OBJECT_TYPE":"PAYLOAD","COUNTRY_CODE":"US","OBJECT_NAME":"STARLINK-2505","TLE_LINE1":"1 48411U 21038BL  22161.82291947  .00003898  00000-0  28037-3 0  9997","ECCENTRICITY":"0.00012860","PERIOD":"95.592","LAUNCH_DATE":"2021-05-04","BSTAR":"0.00028037000000","NORAD_CAT_ID":"48411","MEAN_MOTION_DOT":"0.00003898","TLE_LINE2":"2 48411  53.0548 312.2174 0001286  68.2625 291.8501 15.06404696 61847","REF_FRAME":"TEME","PERIAPSIS":"546.309","ELEMENT_SET_NO":"999","FILE":"3490466","INCLINATION":"53.0548","MEAN_ELEMENT_THEORY":"SGP4","SEMIMAJOR_AXIS":"6925.334","EPHEMERIS_TYPE":"0","ARG_OF_PERICENTER":"68.2625","CLASSIFICATION_TYPE":"U","GP_ID":"205863753","SITE":"AFETR","MEAN_ANOMALY":"291.8501","APOAPSIS":"548.090","MEAN_MOTION_DDOT":"0.0000000000000"},{"FILE":"3490104","ELEMENT_SET_NO":"999","TLE_LINE2":"2 48412  53.0563 312.5189 0001544  55.5246 304.5887 15.03951831 62428","MEAN_MOTION_DOT":"0.00000558","REF_FRAME":"TEME","PERIAPSIS":"553.657","INCLINATION":"53.0563","MEAN_ELEMENT_THEORY":"SGP4","EPHEMERIS_TYPE":"0","SEMIMAJOR_AXIS":"6932.862","CLASSIFICATION_TYPE":"U","GP_ID":"205832784","ARG_OF_PERICENTER":"55.5246","SITE":"AFETR","MEAN_ANOMALY":"304.5887","APOAPSIS":"555.797","MEAN_MOTION_DDOT":"0.0000000000000","MEAN_MOTION":"15.03951831","OBJECT_ID":"2021-038BM","RA_OF_ASC_NODE":"312.5189","CENTER_NAME":"EARTH","REV_AT_EPOCH":"6242","TIME_SYSTEM":"UTC","DECAY_DATE":null,"EPOCH":"2022-06-10T20:00:42.263136","RCS_SIZE":"LARGE","COUNTRY_CODE":"US","OBJECT_NAME":"STARLINK-2581","TLE_LINE1":"1 48412U 21038BM  22161.83382249  .00000558  00000-0  59736-4 0  9996","ECCENTRICITY":"0.00015440","OBJECT_TYPE":"PAYLOAD","NORAD_CAT_ID":"48412","LAUNCH_DATE":"2021-05-04","PERIOD":"95.748","BSTAR":"0.00005973600000"},{"RCS_SIZE":"LARGE","EPOCH":"2022-06-10T20:22:50.110176","DECAY_DATE":null,"REV_AT_EPOCH":"6039","TIME_SYSTEM":"UTC","CENTER_NAME":"EARTH","RA_OF_ASC_NODE":"207.1052","OBJECT_ID":"2021-040A","MEAN_MOTION":"15.06398097","BSTAR":"0.00001999800000","PERIOD":"95.592","LAUNCH_DATE":"2021-05-09","NORAD_CAT_ID":"48428","OBJECT_TYPE":"PAYLOAD","TLE_LINE1":"1 48428U 21040A   22161.84919109  .00000016  00000-0  19998-4 0  9993","ECCENTRICITY":"0.00017930","OBJECT_NAME":"STARLINK-2461","COUNTRY_CODE":"US","SEMIMAJOR_AXIS":"6925.354","EPHEMERIS_TYPE":"0","MEAN_ELEMENT_THEORY":"SGP4","INCLINATION":"53.0560","PERIAPSIS":"545.978","REF_FRAME":"TEME","MEAN_MOTION_DOT":"0.00000016","TLE_LINE2":"2 48428  53.0560 207.1052 0001793  55.5969 304.5189 15.06398097 60399","ELEMENT_SET_NO":"999","FILE":"3490466","MEAN_MOTION_DDOT":"0.0000000000000","APOAPSIS":"548.461","MEAN_ANOMALY":"304.5189","SITE":"AFETR","ARG_OF_PERICENTER":"55.5969","GP_ID":"205863506","CLASSIFICATION_TYPE":"U"},{"RCS_SIZE":"LARGE","DECAY_DATE":null,"EPOCH":"2022-06-10T18:03:30.928320","REV_AT_EPOCH":"6079","TIME_SYSTEM":"UTC","CENTER_NAME":"EARTH","RA_OF_ASC_NODE":"177.5402","OBJECT_ID":"2021-040B","MEAN_MOTION":"15.06393329","BSTAR":"-0.00002770100000","LAUNCH_DATE":"2021-05-09","PERIOD":"95.593","NORAD_CAT_ID":"48429","OBJECT_TYPE":"PAYLOAD","OBJECT_NAME":"STARLINK-2749","TLE_LINE1":"1 48429U 21040B   22161.75244130 -.00000694  00000-0 -27701-4 0  9994","ECCENTRICITY":"0.00018460","COUNTRY_CODE":"US","EPHEMERIS_TYPE":"0","SEMIMAJOR_AXIS":"6925.369","MEAN_ELEMENT_THEORY":"SGP4","INCLINATION":"53.0537","REF_FRAME":"TEME","PERIAPSIS":"545.956","TLE_LINE2":"2 48429  53.0537 177.5402 0001846  60.8660 299.2514 15.06393329 60798","MEAN_MOTION_DOT":"-0.00000694","FILE":"3490466","ELEMENT_SET_NO":"999","MEAN_MOTION_DDOT":"0.0000000000000","APOAPSIS":"548.512","SITE":"AFETR","MEAN_ANOMALY":"299.2514","ARG_OF_PERICENTER":"60.8660","GP_ID":"205862255","CLASSIFICATION_TYPE":"U"},{"RA_OF_ASC_NODE":"178.8773","OBJECT_ID":"2021-040C","MEAN_MOTION":"15.06394439","RCS_SIZE":"LARGE","EPOCH":"2022-06-10T10:52:13.323072","DECAY_DATE":null,"CENTER_NAME":"EARTH","REV_AT_EPOCH":"6203","TIME_SYSTEM":"UTC","OBJECT_TYPE":"PAYLOAD","OBJECT_NAME":"STARLINK-2729","TLE_LINE1":"1 48430U 21040C   22161.45293198 -.00001068  00000-0 -52827-4 0  9994","ECCENTRICITY":"0.00016630","COUNTRY_CODE":"US","BSTAR":"-0.00005282700000","LAUNCH_DATE":"2021-05-09","PERIOD":"95.592","NORAD_CAT_ID":"48430","PERIAPSIS":"546.079","REF_FRAME":"TEME","TLE_LINE2":"2 48430  53.0541 178.8773 0001663  60.1174 299.9980 15.06394439 62036","MEAN_MOTION_DOT":"-0.00001068","FILE":"3490111","ELEMENT_SET_NO":"999","EPHEMERIS_TYPE":"0","SEMIMAJOR_AXIS":"6925.366","MEAN_ELEMENT_THEORY":"SGP4","INCLINATION":"53.0541","ARG_OF_PERICENTER":"60.1174","GP_ID":"205832891","CLASSIFICATION_TYPE":"U","MEAN_MOTION_DDOT":"0.0000000000000","APOAPSIS":"548.382","MEAN_ANOMALY":"299.9980","SITE":"AFETR"},{"REV_AT_EPOCH":"6086","CENTER_NAME":"EARTH","TIME_SYSTEM":"UTC","EPOCH":"2022-06-10T17:33:36.701856","DECAY_DATE":null,"RCS_SIZE":"LARGE","MEAN_MOTION":"15.06399001","OBJECT_ID":"2021-040D","RA_OF_ASC_NODE":"172.6234","NORAD_CAT_ID":"48431","LAUNCH_DATE":"2021-05-09","PERIOD":"95.592","BSTAR":"-0.00000077447000","COUNTRY_CODE":"US","TLE_LINE1":"1 48431U 21040D   22161.73167479 -.00000293  00000-0 -77447-6 0  9994","OBJECT_NAME":"STARLINK-2700","ECCENTRICITY":"0.00015350","OBJECT_TYPE":"PAYLOAD","INCLINATION":"53.0554","MEAN_ELEMENT_THEORY":"SGP4","EPHEMERIS_TYPE":"0","SEMIMAJOR_AXIS":"6925.352","FILE":"3490466","ELEMENT_SET_NO":"999","TLE_LINE2":"2 48431  53.0554 172.6234 0001535  64.1184 295.9963 15.06399001 60864","MEAN_MOTION_DOT":"-0.00000293","PERIAPSIS":"546.154","REF_FRAME":"TEME","MEAN_ANOMALY":"295.9963","SITE":"AFETR","APOAPSIS":"548.280","MEAN_MOTION_DDOT":"0.0000000000000","CLASSIFICATION_TYPE":"U","GP_ID":"205863755","ARG_OF_PERICENTER":"64.1184"}];
